[{"OBJECT_NAME":"ONEWEB-0506","OBJECT_ID":"2022-138M","EPOCH":"2026-06-19T01:42:20.189664","MEAN_MOTION":13.19724074,"ECCENTRICITY":0.0001544,"INCLINATION":87.9181,"RA_OF_ASC_NODE":304.5882,"ARG_OF_PERICENTER":102.3382,"MEAN_ANOMALY":257.7924,"EPHEMERIS_TYPE":0,"CLASSIFICATION_TYPE":"U","NORAD_CAT_ID":54124,"ELEMENT_SET_NO":999,"REV_AT_EPOCH":17705,"BSTAR":-0.00019047,"MEAN_MOTION_DOT":-6.3e-07,"MEAN_MOTION_DDOT":0.0},{"OBJECT_NAME":"ONEWEB-0507","OBJECT_ID":"2022-138N","EPOCH":"2026-06-19T02:11:55.167936","MEAN_MOTION":13.19724916,"ECCENTRICITY":0.0001696,"INCLINATION":87.917,"RA_OF_ASC_NODE":304.5962,"ARG_OF_PERICENTER":102.7223,"MEAN_ANOMALY":257.4099,"EPHEMERIS_TYPE":0,"CLASSIFICATION_TYPE":"U","NORAD_CAT_ID":54125,"ELEMENT_SET_NO":999,"REV_AT_EPOCH":17710,"BSTAR":0.00010899000000000001,"MEAN_MOTION_DOT":5.7e-07,"MEAN_MOTION_DDOT":0.0},{"OBJECT_NAME":"ONEWEB-0508","OBJECT_ID":"2022-138P","EPOCH":"2026-06-18T22:29:00.428928","MEAN_MOTION":13.19724131,"ECCENTRICITY":0.0001574,"INCLINATION":87.917,"RA_OF_ASC_NODE":304.6265,"ARG_OF_PERICENTER":110.2179,"MEAN_ANOMALY":249.9123,"EPHEMERIS_TYPE":0,"CLASSIFICATION_TYPE":"U","NORAD_CAT_ID":54126,"ELEMENT_SET_NO":999,"REV_AT_EPOCH":17706,"BSTAR":1.7919e-05,"MEAN_MOTION_DOT":2e-07,"MEAN_MOTION_DDOT":0.0},{"OBJECT_NAME":"ONEWEB-0509","OBJECT_ID":"2022-138Q","EPOCH":"2026-06-19T01:30:57.821472","MEAN_MOTION":13.19724752,"ECCENTRICITY":0.000172,"INCLINATION":87.9182,"RA_OF_ASC_NODE":304.591,"ARG_OF_PERICENTER":100.7562,"MEAN_ANOMALY":259.3764,"EPHEMERIS_TYPE":0,"CLASSIFICATION_TYPE":"U","NORAD_CAT_ID":54127,"ELEMENT_SET_NO":999,"REV_AT_EPOCH":17705,"BSTAR":-0.00012528,"MEAN_MOTION_DOT":-3.7e-07,"MEAN_MOTION_DDOT":0.0},{"OBJECT_NAME":"ONEWEB-0510","OBJECT_ID":"2022-138R","EPOCH":"2026-06-19T06:04:37.236864","MEAN_MOTION":13.20772234,"ECCENTRICITY":0.0002392,"INCLINATION":87.9198,"RA_OF_ASC_NODE":274.0243,"ARG_OF_PERICENTER":93.912,"MEAN_ANOMALY":266.2287,"EPHEMERIS_TYPE":0,"CLASSIFICATION_TYPE":"U","NORAD_CAT_ID":54128,"ELEMENT_SET_NO":999,"REV_AT_EPOCH":17955,"BSTAR":0.00018338,"MEAN_MOTION_DOT":8.8e-07,"MEAN_MOTION_DDOT":0.0},{"OBJECT_NAME":"ONEWEB-0511","OBJECT_ID":"2022-138S","EPOCH":"2026-06-19T03:15:35.946144","MEAN_MOTION":13.19726057,"ECCENTRICITY":0.0001716,"INCLINATION":87.9177,"RA_OF_ASC_NODE":304.579,"ARG_OF_PERICENTER":91.8682,"MEAN_ANOMALY":268.2647,"EPHEMERIS_TYPE":0,"CLASSIFICATION_TYPE":"U","NORAD_CAT_ID":54129,"ELEMENT_SET_NO":999,"REV_AT_EPOCH":17709,"BSTAR":4.7279e-05,"MEAN_MOTION_DOT":3.2e-07,"MEAN_MOTION_DDOT":0.0},{"OBJECT_NAME":"ONEWEB-0512","OBJECT_ID":"2022-138T","EPOCH":"2026-06-19T03:04:13.128672","MEAN_MOTION":13.19725979,"ECCENTRICITY":0.0001529,"INCLINATION":87.9169,"RA_OF_ASC_NODE":304.5857,"ARG_OF_PERICENTER":97.4726,"MEAN_ANOMALY":262.6581,"EPHEMERIS_TYPE":0,"CLASSIFICATION_TYPE":"U","NORAD_CAT_ID":54130,"ELEMENT_SET_NO":999,"REV_AT_EPOCH":17706,"BSTAR":0.00025072,"MEAN_MOTION_DOT":1.13e-06,"MEAN_MOTION_DDOT":0.0},{"OBJECT_NAME":"ONEWEB-0513","OBJECT_ID":"2022-138U","EPOCH":"2026-06-19T03:11:09.484224","MEAN_MOTION":13.2026831,"ECCENTRICITY":0.0001038,"INCLINATION":87.918,"RA_OF_ASC_NODE":304.5285,"ARG_OF_PERICENTER":78.3481,"MEAN_ANOMALY":281.7769,"EPHEMERIS_TYPE":0,"CLASSIFICATION_TYPE":"U","NORAD_CAT_ID":54131,"ELEMENT_SET_NO":999,"REV_AT_EPOCH":17697,"BSTAR":-7.1461e-05,"MEAN_MOTION_DOT":-1.6e-07,"MEAN_MOTION_DDOT":0.0},{"OBJECT_NAME":"ONEWEB-0514","OBJECT_ID":"2022-138V","EPOCH":"2026-06-19T01:37:47.493984","MEAN_MOTION":13.19725182,"ECCENTRICITY":0.0002002,"INCLINATION":87.9182,"RA_OF_ASC_NODE":304.5915,"ARG_OF_PERICENTER":96.4754,"MEAN_ANOMALY":263.6606,"EPHEMERIS_TYPE":0,"CLASSIFICATION_TYPE":"U","NORAD_CAT_ID":54132,"ELEMENT_SET_NO":999,"REV_AT_EPOCH":17707,"BSTAR":7.000700000000001e-06,"MEAN_MOTION_DOT":1.6e-07,"MEAN_MOTION_DDOT":0.0},{"OBJECT_NAME":"ONEWEB-0515","OBJECT_ID":"2022-138W","EPOCH":"2026-06-19T05:45:13.557600","MEAN_MOTION":13.2077081,"ECCENTRICITY":0.0002779,"INCLINATION":87.9204,"RA_OF_ASC_NODE":274.0214,"ARG_OF_PERICENTER":108.6762,"MEAN_ANOMALY":251.4673,"EPHEMERIS_TYPE":0,"CLASSIFICATION_TYPE":"U","NORAD_CAT_ID":54133,"ELEMENT_SET_NO":999,"REV_AT_EPOCH":17957,"BSTAR":0.00039644,"MEAN_MOTION_DOT":1.74e-06,"MEAN_MOTION_DDOT":0.0},{"OBJECT_NAME":"ONEWEB-0516","OBJECT_ID":"2022-138X","EPOCH":"2026-06-19T02:50:33.895968","MEAN_MOTION":13.19725893,"ECCENTRICITY":0.0001865,"INCLINATION":87.9168,"RA_OF_ASC_NODE":304.5878,"ARG_OF_PERICENTER":105.1729,"MEAN_ANOMALY":254.961,"EPHEMERIS_TYPE":0,"CLASSIFICATION_TYPE":"U","NORAD_CAT_ID":54134,"ELEMENT_SET_NO":999,"REV_AT_EPOCH":17708,"BSTAR":0.00038001,"MEAN_MOTION_DOT":1.65e-06,"MEAN_MOTION_DDOT":0.0},{"OBJECT_NAME":"ONEWEB-0517","OBJECT_ID":"2022-138Y","EPOCH":"2026-06-19T02:21:00.480672","MEAN_MOTION":13.1972459,"ECCENTRICITY":0.000193,"INCLINATION":87.9179,"RA_OF_ASC_NODE":304.5842,"ARG_OF_PERICENTER":89.9109,"MEAN_ANOMALY":270.2245,"EPHEMERIS_TYPE":0,"CLASSIFICATION_TYPE":"U","NORAD_CAT_ID":54135,"ELEMENT_SET_NO":999,"REV_AT_EPOCH":17708,"BSTAR":0.00010192,"MEAN_MOTION_DOT":5.4e-07,"MEAN_MOTION_DDOT":0.0},{"OBJECT_NAME":"ONEWEB-0518","OBJECT_ID":"2022-138Z","EPOCH":"2026-06-19T02:48:18.890784","MEAN_MOTION":13.19727152,"ECCENTRICITY":0.0001885,"INCLINATION":87.917,"RA_OF_ASC_NODE":304.5899,"ARG_OF_PERICENTER":105.427,"MEAN_ANOMALY":254.7071,"EPHEMERIS_TYPE":0,"CLASSIFICATION_TYPE":"U","NORAD_CAT_ID":54136,"ELEMENT_SET_NO":999,"REV_AT_EPOCH":17708,"BSTAR":-1.5686000000000002e-05,"MEAN_MOTION_DOT":7e-08,"MEAN_MOTION_DDOT":0.0},{"OBJECT_NAME":"ONEWEB-0519","OBJECT_ID":"2022-138AA","EPOCH":"2026-06-19T01:35:31.401024","MEAN_MOTION":13.19726391,"ECCENTRICITY":0.0001897,"INCLINATION":87.9184,"RA_OF_ASC_NODE":304.5915,"ARG_OF_PERICENTER":92.257,"MEAN_ANOMALY":267.878,"EPHEMERIS_TYPE":0,"CLASSIFICATION_TYPE":"U","NORAD_CAT_ID":54137,"ELEMENT_SET_NO":999,"REV_AT_EPOCH":17708,"BSTAR":-0.00021265000000000002,"MEAN_MOTION_DOT":-7.2e-07,"MEAN_MOTION_DDOT":0.0},{"OBJECT_NAME":"ONEWEB-0520","OBJECT_ID":"2022-138AB","EPOCH":"2026-06-19T02:25:33.974688","MEAN_MOTION":13.1972448,"ECCENTRICITY":0.0001634,"INCLINATION":87.918,"RA_OF_ASC_NODE":304.5846,"ARG_OF_PERICENTER":103.1702,"MEAN_ANOMALY":256.9613,"EPHEMERIS_TYPE":0,"CLASSIFICATION_TYPE":"U","NORAD_CAT_ID":54138,"ELEMENT_SET_NO":999,"REV_AT_EPOCH":17707,"BSTAR":-5.8447000000000005e-05,"MEAN_MOTION_DOT":-1e-07,"MEAN_MOTION_DDOT":0.0},{"OBJECT_NAME":"ONEWEB-0521","OBJECT_ID":"2022-138AC","EPOCH":"2026-06-19T03:13:19.172352","MEAN_MOTION":13.19724989,"ECCENTRICITY":0.0001922,"INCLINATION":87.9182,"RA_OF_ASC_NODE":304.5666,"ARG_OF_PERICENTER":91.9568,"MEAN_ANOMALY":268.1785,"EPHEMERIS_TYPE":0,"CLASSIFICATION_TYPE":"U","NORAD_CAT_ID":54139,"ELEMENT_SET_NO":999,"REV_AT_EPOCH":17702,"BSTAR":7.733e-05,"MEAN_MOTION_DOT":4.4e-07,"MEAN_MOTION_DDOT":0.0}]