ONEWEB-0506             
1 54124U 22138M   26170.07106701 -.00000063  00000+0 -19047-3 0  9994
2 54124  87.9181 304.5882 0001544 102.3382 257.7924 13.19724074177059
ONEWEB-0507             
1 54125U 22138N   26170.09161074  .00000057  00000+0  10899-3 0  9998
2 54125  87.9170 304.5962 0001696 102.7223 257.4099 13.19724916177104
ONEWEB-0508             
1 54126U 22138P   26169.93681052  .00000020  00000+0  17919-4 0  9994
2 54126  87.9170 304.6265 0001574 110.2179 249.9123 13.19724131177069
ONEWEB-0509             
1 54127U 22138Q   26170.06316923 -.00000037  00000+0 -12528-3 0  9993
2 54127  87.9182 304.5910 0001720 100.7562 259.3764 13.19724752177056
ONEWEB-0510             
1 54128U 22138R   26170.25320876  .00000088  00000+0  18338-3 0  9996
2 54128  87.9198 274.0243 0002392  93.9120 266.2287 13.20772234179557
ONEWEB-0511             
1 54129U 22138S   26170.13583271  .00000032  00000+0  47279-4 0  9990
2 54129  87.9177 304.5790 0001716  91.8682 268.2647 13.19726057177099
ONEWEB-0512             
1 54130U 22138T   26170.12792973  .00000113  00000+0  25072-3 0  9998
2 54130  87.9169 304.5857 0001529  97.4726 262.6581 13.19725979177063
ONEWEB-0513             
1 54131U 22138U   26170.13274866 -.00000016  00000+0 -71461-4 0  9994
2 54131  87.9180 304.5285 0001038  78.3481 281.7769 13.20268310176975
ONEWEB-0514             
1 54132U 22138V   26170.06791081  .00000016  00000+0  70007-5 0  9994
2 54132  87.9182 304.5915 0002002  96.4754 263.6606 13.19725182177078
ONEWEB-0515             
1 54133U 22138W   26170.23974025  .00000174  00000+0  39644-3 0  9990
2 54133  87.9204 274.0214 0002779 108.6762 251.4673 13.20770810179579
ONEWEB-0516             
1 54134U 22138X   26170.11844787  .00000165  00000+0  38001-3 0  9995
2 54134  87.9168 304.5878 0001865 105.1729 254.9610 13.19725893177086
ONEWEB-0517             
1 54135U 22138Y   26170.09792223  .00000054  00000+0  10192-3 0  9998
2 54135  87.9179 304.5842 0001930  89.9109 270.2245 13.19724590177082
ONEWEB-0518             
1 54136U 22138Z   26170.11688531  .00000007  00000+0 -15686-4 0  9991
2 54136  87.9170 304.5899 0001885 105.4270 254.7071 13.19727152177089
ONEWEB-0519             
1 54137U 22138AA  26170.06633566 -.00000072  00000+0 -21265-3 0  9996
2 54137  87.9184 304.5915 0001897  92.2570 267.8780 13.19726391177089
ONEWEB-0520             
1 54138U 22138AB  26170.10108767 -.00000010  00000+0 -58447-4 0  9997
2 54138  87.9180 304.5846 0001634 103.1702 256.9613 13.19724480177077
ONEWEB-0521             
1 54139U 22138AC  26170.13424968  .00000044  00000+0  77330-4 0  9992
2 54139  87.9182 304.5666 0001922  91.9568 268.1785 13.19724989177028
